{"type": "FeatureCollection", "features": [ {"type": "Feature", "properties": {"norad_id": 34736, "name": "COSMOS 2251 DEB", "group": "cosmos-2251-debris", "lat": -16.17595043092435, "lon": 34.269307966429515, "alt_km": 420.4234097218359, "timestamp": "2025-12-11T10:53:16.284997+00:00", "meta": {"OBJECT_NAME": "COSMOS 2251 DEB", "OBJECT_ID": "1993-036ZE", "EPOCH": "2025-12-11T04:44:55.142016", "MEAN_MOTION": 15.46033279, "ECCENTRICITY": 0.0017279, "INCLINATION": 74.0018, "RA_OF_ASC_NODE": 39.6022, "ARG_OF_PERICENTER": 348.9519, "MEAN_ANOMALY": 11.1309, "EPHEMERIS_TYPE": 0, "CLASSIFICATION_TYPE": "U", "NORAD_CAT_ID": 34736, "ELEMENT_SET_NO": 999, "REV_AT_EPOCH": 88424, "BSTAR": 0.010625, "MEAN_MOTION_DOT": 0.00560383, "MEAN_MOTION_DDOT": 0}, "tle": {"line1": "1 34736U 93036ZE  25345.19786044  .00560383  00000+0  10625-1 0  9991", "line2": "2 34736  74.0018  39.6022 0017279 348.9519  11.1309 15.46033279884243"}}, "geometry": {"type": "Point", "coordinates": [34.269307966429515, -16.17595043092435]}}, {"type": "Feature", "properties": {"norad_id": 34738, "name": "COSMOS 2251 DEB", "group": "cosmos-2251-debris", "lat": -4.879188608061665, "lon": 144.26755351226106, "alt_km": 725.519514891751, "timestamp": "2025-12-11T10:53:16.285008+00:00", "meta": {"OBJECT_NAME": "COSMOS 2251 DEB", "OBJECT_ID": "1993-036ZG", "EPOCH": "2025-12-11T05:06:25.588224", "MEAN_MOTION": 14.46296106, "ECCENTRICITY": 0.0047349, "INCLINATION": 74.0143, "RA_OF_ASC_NODE": 146.1198, "ARG_OF_PERICENTER": 292.6645, "MEAN_ANOMALY": 248.3004, "EPHEMERIS_TYPE": 0, "CLASSIFICATION_TYPE": "U", "NORAD_CAT_ID": 34738, "ELEMENT_SET_NO": 999, "REV_AT_EPOCH": 87836, "BSTAR": 0.00048201, "MEAN_MOTION_DOT": 1.724e-05, "MEAN_MOTION_DDOT": 0}, "tle": {"line1": "1 34738U 93036ZG  25345.21279616  .00001724  00000+0  48201-3 0  9990", "line2": "2 34738  74.0143 146.1198 0047349 292.6645 248.3004 14.46296106878369"}}, "geometry": {"type": "Point", "coordinates": [144.26755351226106, -4.879188608061665]}}, {"type": "Feature", "properties": {"norad_id": 34750, "name": "COSMOS 2251 DEB", "group": "cosmos-2251-debris", "lat": 72.43075876552702, "lon": -91.67355911096806, "alt_km": 674.5915806734074, "timestamp": "2025-12-11T10:53:16.285018+00:00", "meta": {"OBJECT_NAME": "COSMOS 2251 DEB", "OBJECT_ID": "1993-036ZU", "EPOCH": "2025-12-11T01:20:17.687328", "MEAN_MOTION": 14.61292893, "ECCENTRICITY": 0.0038917, "INCLINATION": 74.1083, "RA_OF_ASC_NODE": 204.957, "ARG_OF_PERICENTER": 158.6163, "MEAN_ANOMALY": 351.9045, "EPHEMERIS_TYPE": 0, "CLASSIFICATION_TYPE": "U", "NORAD_CAT_ID": 34750, "ELEMENT_SET_NO": 999, "REV_AT_EPOCH": 88206, "BSTAR": 0.0015303, "MEAN_MOTION_DOT": 7.615e-05, "MEAN_MOTION_DDOT": 0}, "tle": {"line1": "1 34750U 93036ZU  25345.05576027  .00007615  00000+0  15303-2 0  9993", "line2": "2 34750  74.1083 204.9570 0038917 158.6163 351.9045 14.61292893882065"}}, "geometry": {"type": "Point", "coordinates": [-91.67355911096806, 72.43075876552702]}}, {"type": "Feature", "properties": {"norad_id": 34752, "name": "COSMOS 2251 DEB", "group": "cosmos-2251-debris", "lat": 42.50569671885333, "lon": 18.456004697176947, "alt_km": 561.7867360082719, "timestamp": "2025-12-11T10:53:16.285029+00:00", "meta": {"OBJECT_NAME": "COSMOS 2251 DEB", "OBJECT_ID": "1993-036ZW", "EPOCH": "2025-12-11T01:05:01.940640", "MEAN_MOTION": 14.99861157, "ECCENTRICITY": 0.0047907, "INCLINATION": 74.0135, "RA_OF_ASC_NODE": 4.0534, "ARG_OF_PERICENTER": 133.0461, "MEAN_ANOMALY": 227.4754, "EPHEMERIS_TYPE": 0, "CLASSIFICATION_TYPE": "U", "NORAD_CAT_ID": 34752, "ELEMENT_SET_NO": 999, "REV_AT_EPOCH": 89824, "BSTAR": 0.0013025, "MEAN_MOTION_DOT": 0.00016535, "MEAN_MOTION_DDOT": 0}, "tle": {"line1": "1 34752U 93036ZW  25345.04516135  .00016535  00000+0  13025-2 0  9998", "line2": "2 34752  74.0135   4.0534 0047907 133.0461 227.4754 14.99861157898247"}}, "geometry": {"type": "Point", "coordinates": [18.456004697176947, 42.50569671885333]}}, {"type": "Feature", "properties": {"norad_id": 34754, "name": "COSMOS 2251 DEB", "group": "cosmos-2251-debris", "lat": -61.69906113999754, "lon": -162.14547175398326, "alt_km": 750.9051633523723, "timestamp": "2025-12-11T10:53:16.285039+00:00", "meta": {"OBJECT_NAME": "COSMOS 2251 DEB", "OBJECT_ID": "1993-036ZY", "EPOCH": "2025-12-11T01:30:21.281184", "MEAN_MOTION": 14.40477672, "ECCENTRICITY": 0.00295, "INCLINATION": 74.0305, "RA_OF_ASC_NODE": 230.7044, "ARG_OF_PERICENTER": 347.1261, "MEAN_ANOMALY": 80.5102, "EPHEMERIS_TYPE": 0, "CLASSIFICATION_TYPE": "U", "NORAD_CAT_ID": 34754, "ELEMENT_SET_NO": 999, "REV_AT_EPOCH": 88109, "BSTAR": 0.00031324, "MEAN_MOTION_DOT": 9.75e-06, "MEAN_MOTION_DDOT": 0}, "tle": {"line1": "1 34754U 93036ZY  25345.06274631  .00000975  00000+0  31324-3 0  9998", "line2": "2 34754  74.0305 230.7044 0029500 347.1261  80.5102 14.40477672881098"}}, "geometry": {"type": "Point", "coordinates": [-162.14547175398326, -61.69906113999754]}}, {"type": "Feature", "properties": {"norad_id": 34755, "name": "COSMOS 2251 DEB", "group": "cosmos-2251-debris", "lat": 70.71426925811592, "lon": 56.60847251158925, "alt_km": 1319.2707584774635, "timestamp": "2025-12-11T10:53:16.285050+00:00", "meta": {"OBJECT_NAME": "COSMOS 2251 DEB", "OBJECT_ID": "1993-036ZZ", "EPOCH": "2025-12-10T13:38:40.081344", "MEAN_MOTION": 13.50549672, "ECCENTRICITY": 0.0408338, "INCLINATION": 73.9258, "RA_OF_ASC_NODE": 293.5146, "ARG_OF_PERICENTER": 313.7179, "MEAN_ANOMALY": 162.5908, "EPHEMERIS_TYPE": 0, "CLASSIFICATION_TYPE": "U", "NORAD_CAT_ID": 34755, "ELEMENT_SET_NO": 999, "REV_AT_EPOCH": 82494, "BSTAR": 0.0024737, "MEAN_MOTION_DOT": 2.646e-05, "MEAN_MOTION_DDOT": 0}, "tle": {"line1": "1 34755U 93036ZZ  25344.56851946  .00002646  00000+0  24737-2 0  9999", "line2": "2 34755  73.9258 293.5146 0408338 313.7179 162.5908 13.50549672824947"}}, "geometry": {"type": "Point", "coordinates": [56.60847251158925, 70.71426925811592]}}, {"type": "Feature", "properties": {"norad_id": 34756, "name": "COSMOS 2251 DEB", "group": "cosmos-2251-debris", "lat": -69.01057953222383, "lon": 58.08952046014967, "alt_km": 878.0500598921444, "timestamp": "2025-12-11T10:53:16.285060+00:00", "meta": {"OBJECT_NAME": "COSMOS 2251 DEB", "OBJECT_ID": "1993-036AAA", "EPOCH": "2025-12-11T00:42:08.325792", "MEAN_MOTION": 13.67236535, "ECCENTRICITY": 0.0344945, "INCLINATION": 74.0025, "RA_OF_ASC_NODE": 107.1822, "ARG_OF_PERICENTER": 343.3678, "MEAN_ANOMALY": 15.6341, "EPHEMERIS_TYPE": 0, "CLASSIFICATION_TYPE": "U", "NORAD_CAT_ID": 34756, "ELEMENT_SET_NO": 999, "REV_AT_EPOCH": 83398, "BSTAR": 0.0012257, "MEAN_MOTION_DOT": 1.53e-05, "MEAN_MOTION_DDOT": 0}, "tle": {"line1": "1 34756U 93036AAA 25345.02926303  .00001530  00000+0  12257-2 0  9997", "line2": "2 34756  74.0025 107.1822 0344945 343.3678  15.6341 13.67236535833981"}}, "geometry": {"type": "Point", "coordinates": [58.08952046014967, -69.01057953222383]}}, {"type": "Feature", "properties": {"norad_id": 34758, "name": "COSMOS 2251 DEB", "group": "cosmos-2251-debris", "lat": 72.81954564660711, "lon": 8.701777548918958, "alt_km": 765.1388989656671, "timestamp": "2025-12-11T10:53:16.285070+00:00", "meta": {"OBJECT_NAME": "COSMOS 2251 DEB", "OBJECT_ID": "1993-036AAC", "EPOCH": "2025-12-11T05:12:02.918880", "MEAN_MOTION": 13.58060405, "ECCENTRICITY": 0.0381121, "INCLINATION": 74.1077, "RA_OF_ASC_NODE": 301.948, "ARG_OF_PERICENTER": 66.0346, "MEAN_ANOMALY": 298.018, "EPHEMERIS_TYPE": 0, "CLASSIFICATION_TYPE": "U", "NORAD_CAT_ID": 34758, "ELEMENT_SET_NO": 999, "REV_AT_EPOCH": 82889, "BSTAR": 0.0017151, "MEAN_MOTION_DOT": 1.975e-05, "MEAN_MOTION_DDOT": 0}, "tle": {"line1": "1 34758U 93036AAC 25345.21670045  .00001975  00000+0  17151-2 0  9990", "line2": "2 34758  74.1077 301.9480 0381121  66.0346 298.0180 13.58060405828896"}}, "geometry": {"type": "Point", "coordinates": [8.701777548918958, 72.81954564660711]}}, {"type": "Feature", "properties": {"norad_id": 34760, "name": "COSMOS 2251 DEB", "group": "cosmos-2251-debris", "lat": 46.208122478527436, "lon": -38.00578158730683, "alt_km": 778.7895067803065, "timestamp": "2025-12-11T10:53:16.285081+00:00", "meta": {"OBJECT_NAME": "COSMOS 2251 DEB", "OBJECT_ID": "1993-036AAE", "EPOCH": "2025-12-11T03:59:03.168960", "MEAN_MOTION": 14.19561942, "ECCENTRICITY": 0.0096729, "INCLINATION": 74.0638, "RA_OF_ASC_NODE": 305.1678, "ARG_OF_PERICENTER": 357.6404, "MEAN_ANOMALY": 20.7795, "EPHEMERIS_TYPE": 0, "CLASSIFICATION_TYPE": "U", "NORAD_CAT_ID": 34760, "ELEMENT_SET_NO": 999, "REV_AT_EPOCH": 86666, "BSTAR": 0.001023, "MEAN_MOTION_DOT": 2.236e-05, "MEAN_MOTION_DDOT": 0}, "tle": {"line1": "1 34760U 93036AAE 25345.16600890  .00002236  00000+0  10230-2 0  9990", "line2": "2 34760  74.0638 305.1678 0096729 357.6404  20.7795 14.19561942866666"}}, "geometry": {"type": "Point", "coordinates": [-38.00578158730683, 46.208122478527436]}}, {"type": "Feature", "properties": {"norad_id": 34761, "name": "COSMOS 2251 DEB", "group": "cosmos-2251-debris", "lat": -58.30140740292748, "lon": -147.21202333913484, "alt_km": 795.6943319591401, "timestamp": "2025-12-11T10:53:16.285092+00:00", "meta": {"OBJECT_NAME": "COSMOS 2251 DEB", "OBJECT_ID": "1993-036AAF", "EPOCH": "2025-12-11T01:25:03.318816", "MEAN_MOTION": 14.38039195, "ECCENTRICITY": 0.0036336, "INCLINATION": 74.0296, "RA_OF_ASC_NODE": 5.8886, "ARG_OF_PERICENTER": 40.4894, "MEAN_ANOMALY": 319.8953, "EPHEMERIS_TYPE": 0, "CLASSIFICATION_TYPE": "U", "NORAD_CAT_ID": 34761, "ELEMENT_SET_NO": 999, "REV_AT_EPOCH": 87625, "BSTAR": 0.0008489, "MEAN_MOTION_DOT": 2.564e-05, "MEAN_MOTION_DDOT": 0}, "tle": {"line1": "1 34761U 93036AAF 25345.05906619  .00002564  00000+0  84890-3 0  9995", "line2": "2 34761  74.0296   5.8886 0036336  40.4894 319.8953 14.38039195876255"}}, "geometry": {"type": "Point", "coordinates": [-147.21202333913484, -58.30140740292748]}}]}